[{"OBJECT_NAME":"YAOGAN-16 01B","OBJECT_ID":"2012-066B","EPOCH":"2026-03-09T16:02:29.918976","MEAN_MOTION":13.45502016,"ECCENTRICITY":0.04276845,"INCLINATION":63.3552,"RA_OF_ASC_NODE":187.0386,"ARG_OF_PERICENTER":26.0287,"MEAN_ANOMALY":336.1576,"EPHEMERIS_TYPE":0,"CLASSIFICATION_TYPE":"U","NORAD_CAT_ID":39012,"ELEMENT_SET_NO":999,"REV_AT_EPOCH":65271,"BSTAR":5.0682079e-5,"MEAN_MOTION_DOT":-3.9e-7,"MEAN_MOTION_DDOT":0},{"OBJECT_NAME":"COSMOS 970 DEB","OBJECT_ID":"1977-121CC","EPOCH":"2026-03-09T02:57:35.256672","MEAN_MOTION":13.62561452,"ECCENTRICITY":0.01122056,"INCLINATION":65.7387,"RA_OF_ASC_NODE":295.0047,"ARG_OF_PERICENTER":276.7444,"MEAN_ANOMALY":166.6576,"EPHEMERIS_TYPE":0,"CLASSIFICATION_TYPE":"U","NORAD_CAT_ID":64967,"ELEMENT_SET_NO":999,"REV_AT_EPOCH":61120,"BSTAR":0.00014091093,"MEAN_MOTION_DOT":3.5e-7,"MEAN_MOTION_DDOT":0}]
